
# Worst residual: 3.06 km
# MJD 58734.000000 (2019 Sep  8  0:00)
2002-048A = NORAD 27540 = Integral
1 27540U 02048A   19251.49919926  .00000000  00000-0  00000-0 0  6446
2 27540 050.4328 137.3123 8837420 281.4628 215.1430 00.37601677    08

# Worst residual: 12.24 km
# MJD 58735.000000 (2019 Sep  9  0:00)
2002-048A = NORAD 27540 = Integral
1 27540U 02048A   19252.49919926  .00000000  00000-0  00000-0 0  6447
2 27540 050.4486 137.2299 8836789 281.5017 350.5504 00.37627120    03

# Worst residual: 5.65 km
# MJD 58736.000000 (2019 Sep 10  0:00)
2002-048A = NORAD 27540 = Integral
1 27540U 02048A   19253.49919926  .00000000  00000-0  00000-0 0  6448
2 27540 050.4549 137.1373 8839933 281.5390 125.9395 00.37596022    01

# Worst residual: 2.86 km
# MJD 58737.000000 (2019 Sep 11  0:00)
2002-048A = NORAD 27540 = Integral
1 27540U 02048A   19254.49919926  .00000000  00000-0  00000-0 0  6449
2 27540 050.4573 137.1081 8841678 281.5465 261.3373 00.37598728    02

# Worst residual: 16.93 km
# MJD 58738.000000 (2019 Sep 12  0:00)
2002-048A = NORAD 27540 = Integral
1 27540U 02048A   19255.49919926  .00000000  00000-0  00000-0 0  6440
2 27540 050.4745 137.0098 8841396 281.5950 036.7738 00.37622026    04

# Worst residual: 3.19 km
# MJD 58739.000000 (2019 Sep 13  0:00)
2002-048A = NORAD 27540 = Integral
1 27540U 02048A   19256.49919926  .00000000  00000-0  00000-0 0  6441
2 27540 050.4822 136.9211 8844000 281.6421 172.1004 00.37593619    00

# Worst residual: 6.47 km
# MJD 58740.000000 (2019 Sep 14  0:00)
2002-048A = NORAD 27540 = Integral
1 27540U 02048A   19257.49919926  .00000000  00000-0  00000-0 0  6442
2 27540 050.4854 136.8705 8844357 281.6627 307.4911 00.37596972    00

# Worst residual: 10.59 km
# MJD 58741.000000 (2019 Sep 15  0:00)
2002-048A = NORAD 27540 = Integral
1 27540U 02048A   19258.49919926  .00000000  00000-0  00000-0 0  6443
2 27540 050.5037 136.7301 8846156 281.7357 082.9205 00.37607044    09

# Worst residual: 2.71 km
# MJD 58742.000000 (2019 Sep 16  0:00)
2002-048A = NORAD 27540 = Integral
1 27540U 02048A   19259.49919926  .00000000  00000-0  00000-0 0  6444
2 27540 050.5096 136.7022 8846128 281.7538 218.2449 00.37591662    06

# Worst residual: 10.03 km
# MJD 58743.000000 (2019 Sep 17  0:00)
2002-048A = NORAD 27540 = Integral
1 27540U 02048A   19260.49919926  .00000000  00000-0  00000-0 0  6446
2 27540 050.5309 136.6106 8846188 281.8067 353.6303 00.37615748    04

# Worst residual: 6.08 km
# MJD 58744.000000 (2019 Sep 18  0:00)
2002-048A = NORAD 27540 = Integral
1 27540U 02048A   19261.49919926  .00000000  00000-0  00000-0 0  6447
2 27540 050.5350 136.5024 8848007 281.8603 129.0204 00.37594998    04

# Worst residual: 5.10 km
# MJD 58745.000000 (2019 Sep 19  0:00)
2002-048A = NORAD 27540 = Integral
1 27540U 02048A   19262.49919926  .00000000  00000-0  00000-0 0  6448
2 27540 050.5344 136.4879 8848352 281.8656 264.3565 00.37595672    08

# Worst residual: 14.27 km
# MJD 58746.000000 (2019 Sep 20  0:00)
2002-048A = NORAD 27540 = Integral
1 27540U 02048A   19263.49919926  .00000000  00000-0  00000-0 0  6449
2 27540 050.5593 136.3739 8848011 281.9228 039.7783 00.37617256    05

# Worst residual: 3.59 km
# MJD 58747.000000 (2019 Sep 21  0:00)
2002-048A = NORAD 27540 = Integral
1 27540U 02048A   19264.49919926  .00000000  00000-0  00000-0 0  6440
2 27540 050.5652 136.2698 8849412 281.9855 175.1210 00.37593569    06

# Worst residual: 17.45 km
# MJD 58748.000000 (2019 Sep 22  0:00)
2002-048A = NORAD 27540 = Integral
1 27540U 02048A   19265.49919926  .00000000  00000-0  00000-0 0  6441
2 27540 050.5801 136.1821 8848436 282.0370 310.4290 00.37612657    00

# Worst residual: 9.73 km
# MJD 58749.000000 (2019 Sep 23  0:00)
2002-048A = NORAD 27540 = Integral
1 27540U 02048A   19266.49919926  .00000000  00000-0  00000-0 0  6442
2 27540 050.5970 136.0446 8849857 282.1017 085.8869 00.37611155    03

# Worst residual: 3.89 km
# MJD 58750.000000 (2019 Sep 24  0:00)
2002-048A = NORAD 27540 = Integral
1 27540U 02048A   19267.49919926  .00000000  00000-0  00000-0 0  6443
2 27540 050.6089 135.9653 8848489 282.1520 221.2471 00.37595465    02

# Worst residual: 13.48 km
# MJD 58751.000000 (2019 Sep 25  0:00)
2002-048A = NORAD 27540 = Integral
1 27540U 02048A   19268.49919926  .00000000  00000-0  00000-0 0  6444
2 27540 050.6354 135.8516 8845426 282.2064 356.6039 00.37636643    03

# Worst residual: 3.71 km
# MJD 58752.000000 (2019 Sep 26  0:00)
2002-048A = NORAD 27540 = Integral
1 27540U 02048A   19269.49919926  .00000000  00000-0  00000-0 0  6445
2 27540 050.6426 135.7486 8848472 282.2447 132.0259 00.37607127    02

# Worst residual: 5.30 km
# MJD 58753.000000 (2019 Sep 27  0:00)
2002-048A = NORAD 27540 = Integral
1 27540U 02048A   19270.49919926  .00000000  00000-0  00000-0 0  6447
2 27540 050.6430 135.7215 8845570 282.2424 267.4714 00.37595078    08

# Worst residual: 21.05 km
# MJD 58754.000000 (2019 Sep 28  0:00)
2002-048A = NORAD 27540 = Integral
1 27540U 02048A   19271.49919926  .00000000  00000-0  00000-0 0  6448
2 27540 050.6580 135.6208 8844550 282.2819 042.8953 00.37616643    02

# Worst residual: 4.11 km
# MJD 58755.000000 (2019 Sep 29  0:00)
2002-048A = NORAD 27540 = Integral
1 27540U 02048A   19272.49919926  .00000000  00000-0  00000-0 0  6449
2 27540 050.6642 135.5070 8847187 282.3310 178.2861 00.37602919    06

# Worst residual: 15.97 km
# MJD 58756.000000 (2019 Sep 30  0:00)
2002-048A = NORAD 27540 = Integral
1 27540U 02048A   19273.49919926  .00000000  00000-0  00000-0 0  6440
2 27540 050.6651 135.4730 8846702 282.3326 313.7341 00.37601273    08

# Worst residual: 6.44 km
# MJD 58757.000000 (2019 Oct  1  0:00)
2002-048A = NORAD 27540 = Integral
1 27540U 02048A   19274.49919926  .00000000  00000-0  00000-0 0  6441
2 27540 050.6784 135.3275 8848114 282.4004 089.1716 00.37607280    05

# Worst residual: 2.90 km
# MJD 58758.000000 (2019 Oct  2  0:00)
2002-048A = NORAD 27540 = Integral
1 27540U 02048A   19275.49919926  .00000000  00000-0  00000-0 0  6442
2 27540 050.6801 135.3246 8848309 282.3914 224.5984 00.37601315    03

# Worst residual: 10.71 km
# MJD 58759.000000 (2019 Oct  3  0:00)
2002-048A = NORAD 27540 = Integral
1 27540U 02048A   19276.49919926  .00000000  00000-0  00000-0 0  6443
2 27540 050.7056 135.2257 8847547 282.4354 000.0181 00.37623468    08
